[{"OBJECT_NAME":"ARCTIC WEATHER SATELLITE","OBJECT_ID":"2024-149CD","EPOCH":"2026-03-09T17:59:50.988480","MEAN_MOTION":14.89807185,"ECCENTRICITY":0.00036824,"INCLINATION":97.6882,"RA_OF_ASC_NODE":142.0249,"ARG_OF_PERICENTER":84.5816,"MEAN_ANOMALY":275.5822,"EPHEMERIS_TYPE":0,"CLASSIFICATION_TYPE":"U","NORAD_CAT_ID":60543,"ELEMENT_SET_NO":999,"REV_AT_EPOCH":8449,"BSTAR":-0.00043535777,"MEAN_MOTION_DOT":-4.227e-5,"MEAN_MOTION_DDOT":0},{"OBJECT_NAME":"FENGYUN 1C DEB","OBJECT_ID":"1999-025BNB","EPOCH":"2026-03-07T15:11:57.347232","MEAN_MOTION":14.45117426,"ECCENTRICITY":0.0237619,"INCLINATION":98.1742,"RA_OF_ASC_NODE":306.5864,"ARG_OF_PERICENTER":16.8277,"MEAN_ANOMALY":47.6906,"EPHEMERIS_TYPE":0,"CLASSIFICATION_TYPE":"U","NORAD_CAT_ID":31269,"ELEMENT_SET_NO":999,"REV_AT_EPOCH":97712,"BSTAR":0.0021414,"MEAN_MOTION_DOT":0.00010577,"MEAN_MOTION_DDOT":0}]
